{
    "links": {
        "self": "http://www.neowsapp.com/rest/v1/neo/3400306?api_key=iIulBulltgU6a56xZRHN4H3l9WmuAYTsLGpBGhQ2"
    },
    "id": "3400306",
    "neo_reference_id": "3400306",
    "name": "(2008 BT2)",
    "designation": "2008 BT2",
    "nasa_jpl_url": "http://ssd.jpl.nasa.gov/sbdb.cgi?sstr=3400306",
    "absolute_magnitude_h": 24.3,
    "estimated_diameter": {
        "kilometers": {
            "estimated_diameter_min": 0.0366906138,
            "estimated_diameter_max": 0.0820427065
        },
        "meters": {
            "estimated_diameter_min": 36.6906137531,
            "estimated_diameter_max": 82.0427064882
        },
        "miles": {
            "estimated_diameter_min": 0.0227984834,
            "estimated_diameter_max": 0.0509789586
        },
        "feet": {
            "estimated_diameter_min": 120.3760332259,
            "estimated_diameter_max": 269.1689931548
        }
    },
    "is_potentially_hazardous_asteroid": false,
    "close_approach_data": [
        {
            "close_approach_date": "1998-09-27",
            "close_approach_date_full": "1998-Sep-27 15:55",
            "epoch_date_close_approach": 906911700000,
            "relative_velocity": {
                "kilometers_per_second": "4.4990026568",
                "kilometers_per_hour": "16196.4095646263",
                "miles_per_hour": "10063.8190430868"
            },
            "miss_distance": {
                "astronomical": "0.2655574434",
                "lunar": "103.3018454826",
                "kilometers": "39726827.895285558",
                "miles": "24685106.1905463804"
            },
            "orbiting_body": "Earth"
        },
        {
            "close_approach_date": "2003-07-10",
            "close_approach_date_full": "2003-Jul-10 12:58",
            "epoch_date_close_approach": 1057841880000,
            "relative_velocity": {
                "kilometers_per_second": "2.9097957583",
                "kilometers_per_hour": "10475.2647298797",
                "miles_per_hour": "6508.9221317411"
            },
            "miss_distance": {
                "astronomical": "0.1994100291",
                "lunar": "77.5705013199",
                "kilometers": "29831315.609998017",
                "miles": "18536319.9794739546"
            },
            "orbiting_body": "Earth"
        },
        {
            "close_approach_date": "2008-02-02",
            "close_approach_date_full": "2008-Feb-02 14:51",
            "epoch_date_close_approach": 1201963860000,
            "relative_velocity": {
                "kilometers_per_second": "1.8339498828",
                "kilometers_per_hour": "6602.2195781337",
                "miles_per_hour": "4102.3624928687"
            },
            "miss_distance": {
                "astronomical": "0.1321665506",
                "lunar": "51.4127881834",
                "kilometers": "19771834.455007222",
                "miles": "12285648.2372627836"
            },
            "orbiting_body": "Earth"
        },
        {
            "close_approach_date": "2012-10-20",
            "close_approach_date_full": "2012-Oct-20 12:58",
            "epoch_date_close_approach": 1350737880000,
            "relative_velocity": {
                "kilometers_per_second": "4.3280140618",
                "kilometers_per_hour": "15580.850622589",
                "miles_per_hour": "9681.3346549082"
            },
            "miss_distance": {
                "astronomical": "0.2612560032",
                "lunar": "101.6285852448",
                "kilometers": "39083341.603433184",
                "miles": "24285262.3497945792"
            },
            "orbiting_body": "Earth"
        },
        {
            "close_approach_date": "2017-08-06",
            "close_approach_date_full": "2017-Aug-06 11:04",
            "epoch_date_close_approach": 1502017440000,
            "relative_velocity": {
                "kilometers_per_second": "3.7947356472",
                "kilometers_per_hour": "13661.0483298927",
                "miles_per_hour": "8488.4441692047"
            },
            "miss_distance": {
                "astronomical": "0.2327564849",
                "lunar": "90.5422726261",
                "kilometers": "34819874.369727163",
                "miles": "21636066.6556063294"
            },
            "orbiting_body": "Earth"
        }
    ],
    "orbital_data": {
        "orbit_id": "10",
        "orbit_determination_date": "2017-04-06 09:04:38",
        "first_observation_date": "2008-01-18",
        "last_observation_date": "2008-03-09",
        "data_arc_in_days": 51,
        "observations_used": 30,
        "orbit_uncertainty": "5",
        "minimum_orbit_intersection": ".0859521",
        "jupiter_tisserand_invariant": "5.381",
        "epoch_osculation": "2459000.5",
        "eccentricity": ".08070876673629064",
        "semi_major_axis": "1.173097208643686",
        "inclination": "3.074672508248637",
        "ascending_node_longitude": "333.6158321890464",
        "orbital_period": "464.087027601708",
        "perihelion_distance": "1.078417979672269",
        "perihelion_argument": "201.8619281083064",
        "aphelion_distance": "1.267776437615103",
        "perihelion_time": "2459191.163507829988",
        "mean_anomaly": "212.0991565450448",
        "mean_motion": ".7757165759629069",
        "equinox": "J2000",
        "orbit_class": {
            "orbit_class_type": "AMO",
            "orbit_class_description": "Near-Earth asteroid orbits similar to that of 1221 Amor",
            "orbit_class_range": "1.017 AU < q (perihelion) < 1.3 AU"
        }
    },
    "is_sentry_object": false
}